[{"OBJECT_NAME":"THEA","OBJECT_ID":"2018-099AQ","EPOCH":"2026-03-09T22:33:02.658240","MEAN_MOTION":15.31454284,"ECCENTRICITY":0.00065849,"INCLINATION":97.4542,"RA_OF_ASC_NODE":137.8815,"ARG_OF_PERICENTER":275.4664,"MEAN_ANOMALY":84.5826,"EPHEMERIS_TYPE":0,"CLASSIFICATION_TYPE":"U","NORAD_CAT_ID":43796,"ELEMENT_SET_NO":999,"REV_AT_EPOCH":39748,"BSTAR":0.00074635274,"MEAN_MOTION_DOT":0.00022649,"MEAN_MOTION_DDOT":0},{"OBJECT_NAME":"STARLINK-2605","OBJECT_ID":"2021-038AR","EPOCH":"2026-03-09T23:17:41.845344","MEAN_MOTION":15.30198522,"ECCENTRICITY":0.00011813,"INCLINATION":53.1604,"RA_OF_ASC_NODE":331.2339,"ARG_OF_PERICENTER":98.9551,"MEAN_ANOMALY":261.1583,"EPHEMERIS_TYPE":0,"CLASSIFICATION_TYPE":"U","NORAD_CAT_ID":48392,"ELEMENT_SET_NO":999,"REV_AT_EPOCH":26870,"BSTAR":0.00025363201,"MEAN_MOTION_DOT":7.16e-5,"MEAN_MOTION_DDOT":0}]
